{"type": "FeatureCollection", "features": [{"type": "Feature", "properties": {"norad_id": 24946, "name": "IRIDIUM 33", "group": "iridium-33-debris", "lat": 22.332240484832756, "lon": -116.0156208578857, "alt_km": 769.5110022864019, "timestamp": "2025-12-19T06:59:44.291482+00:00", "meta": {"OBJECT_NAME": "IRIDIUM 33", "OBJECT_ID": "1997-051C", "EPOCH": "2025-12-18T15:12:08.915328", "MEAN_MOTION": 14.35041483, "ECCENTRICITY": 0.0007737, "INCLINATION": 86.3868, "RA_OF_ASC_NODE": 65.7479, "ARG_OF_PERICENTER": 180.2662, "MEAN_ANOMALY": 179.8531, "EPHEMERIS_TYPE": 0, "CLASSIFICATION_TYPE": "U", "NORAD_CAT_ID": 24946, "ELEMENT_SET_NO": 999, "REV_AT_EPOCH": 47919, "BSTAR": 9.2049162e-05, "MEAN_MOTION_DOT": 2.82e-06, "MEAN_MOTION_DDOT": 0}, "tle": {"line1": "1 24946U 97051C   25352.63343652  .00000282  00000+0  92049-4 0  9995", "line2": "2 24946  86.3868  65.7479 0007737 180.2662 179.8531 14.35041483479190"}}, "geometry": {"type": "Point", "coordinates": [-116.0156208578857, 22.332240484832756]}}, {"type": "Feature", "properties": {"norad_id": 33773, "name": "IRIDIUM 33 DEB", "group": "iridium-33-debris", "lat": -51.690382854300125, "lon": 53.24302632791179, "alt_km": 763.9940706468342, "timestamp": "2025-12-19T06:59:44.291509+00:00", "meta": {"OBJECT_NAME": "IRIDIUM 33 DEB", "OBJECT_ID": "1997-051L", "EPOCH": "2025-12-18T16:15:37.298592", "MEAN_MOTION": 14.43269287, "ECCENTRICITY": 0.00129715, "INCLINATION": 86.4004, "RA_OF_ASC_NODE": 58.0733, "ARG_OF_PERICENTER": 129.1205, "MEAN_ANOMALY": 231.1151, "EPHEMERIS_TYPE": 0, "CLASSIFICATION_TYPE": "U", "NORAD_CAT_ID": 33773, "ELEMENT_SET_NO": 999, "REV_AT_EPOCH": 88433, "BSTAR": 0.00022543897, "MEAN_MOTION_DOT": 7.79e-06, "MEAN_MOTION_DDOT": 0}, "tle": {"line1": "1 33773U 97051L   25352.67751503  .00000779  00000+0  22544-3 0  9998", "line2": "2 33773  86.4004  58.0733 0012971 129.1205 231.1151 14.43269287884339"}}, "geometry": {"type": "Point", "coordinates": [53.24302632791179, -51.690382854300125]}}, {"type": "Feature", "properties": {"norad_id": 33775, "name": "IRIDIUM 33 DEB", "group": "iridium-33-debris", "lat": -10.557341931689429, "lon": 46.07727044843426, "alt_km": 766.6316519992715, "timestamp": "2025-12-19T06:59:44.291525+00:00", "meta": {"OBJECT_NAME": "IRIDIUM 33 DEB", "OBJECT_ID": "1997-051N", "EPOCH": "2025-12-18T15:09:18.283968", "MEAN_MOTION": 14.41480669, "ECCENTRICITY": 0.00148625, "INCLINATION": 86.3631, "RA_OF_ASC_NODE": 47.0382, "ARG_OF_PERICENTER": 136.8807, "MEAN_ANOMALY": 29.8565, "EPHEMERIS_TYPE": 0, "CLASSIFICATION_TYPE": "U", "NORAD_CAT_ID": 33775, "ELEMENT_SET_NO": 999, "REV_AT_EPOCH": 88225, "BSTAR": 0.00024003689, "MEAN_MOTION_DOT": 8e-06, "MEAN_MOTION_DDOT": 0}, "tle": {"line1": "1 33775U 97051N   25352.63146162  .00000800  00000+0  24004-3 0  9993", "line2": "2 33775  86.3631  47.0382 0014862 136.8807  29.8565 14.41480669882255"}}, "geometry": {"type": "Point", "coordinates": [46.07727044843426, -10.557341931689429]}}, {"type": "Feature", "properties": {"norad_id": 33776, "name": "IRIDIUM 33 DEB", "group": "iridium-33-debris", "lat": 36.76488481085552, "lon": -104.66859309400415, "alt_km": 752.1140784023537, "timestamp": "2025-12-19T06:59:44.291537+00:00", "meta": {"OBJECT_NAME": "IRIDIUM 33 DEB", "OBJECT_ID": "1997-051P", "EPOCH": "2025-12-18T19:11:32.813376", "MEAN_MOTION": 14.38245521, "ECCENTRICITY": 0.00150531, "INCLINATION": 86.4036, "RA_OF_ASC_NODE": 78.2312, "ARG_OF_PERICENTER": 170.7617, "MEAN_ANOMALY": 307.6071, "EPHEMERIS_TYPE": 0, "CLASSIFICATION_TYPE": "U", "NORAD_CAT_ID": 33776, "ELEMENT_SET_NO": 999, "REV_AT_EPOCH": 88169, "BSTAR": 0.0002140719, "MEAN_MOTION_DOT": 6.71e-06, "MEAN_MOTION_DDOT": 0}, "tle": {"line1": "1 33776U 97051P   25352.79968534  .00000671  00000+0  21407-3 0  9996", "line2": "2 33776  86.4036  78.2312 0015053 170.7617 307.6071 14.38245521881692"}}, "geometry": {"type": "Point", "coordinates": [-104.66859309400415, 36.76488481085552]}}, {"type": "Feature", "properties": {"norad_id": 33777, "name": "IRIDIUM 33 DEB", "group": "iridium-33-debris", "lat": -19.44525649987248, "lon": 31.072216755734445, "alt_km": 714.4670674069812, "timestamp": "2025-12-19T06:59:44.291550+00:00", "meta": {"OBJECT_NAME": "IRIDIUM 33 DEB", "OBJECT_ID": "1997-051Q", "EPOCH": "2025-12-18T21:11:10.273056", "MEAN_MOTION": 14.55655728, "ECCENTRICITY": 0.00056191, "INCLINATION": 86.3779, "RA_OF_ASC_NODE": 32.5314, "ARG_OF_PERICENTER": 221.6696, "MEAN_ANOMALY": 138.4084, "EPHEMERIS_TYPE": 0, "CLASSIFICATION_TYPE": "U", "NORAD_CAT_ID": 33777, "ELEMENT_SET_NO": 999, "REV_AT_EPOCH": 88623, "BSTAR": 0.00061959884, "MEAN_MOTION_DOT": 2.726e-05, "MEAN_MOTION_DDOT": 0}, "tle": {"line1": "1 33777U 97051Q   25352.88275779  .00002726  00000+0  61960-3 0  9990", "line2": "2 33777  86.3779  32.5314 0005619 221.6696 138.4084 14.55655728886233"}}, "geometry": {"type": "Point", "coordinates": [31.072216755734445, -19.44525649987248]}}, {"type": "Feature", "properties": {"norad_id": 33850, "name": "IRIDIUM 33 DEB", "group": "iridium-33-debris", "lat": -13.645204228392085, "lon": 26.472468256235572, "alt_km": 764.2692261393413, "timestamp": "2025-12-19T06:59:44.291562+00:00", "meta": {"OBJECT_NAME": "IRIDIUM 33 DEB", "OBJECT_ID": "1997-051T", "EPOCH": "2025-12-18T14:59:17.983680", "MEAN_MOTION": 14.42158968, "ECCENTRICITY": 0.00127915, "INCLINATION": 86.3413, "RA_OF_ASC_NODE": 27.6492, "ARG_OF_PERICENTER": 143.3422, "MEAN_ANOMALY": 342.6058, "EPHEMERIS_TYPE": 0, "CLASSIFICATION_TYPE": "U", "NORAD_CAT_ID": 33850, "ELEMENT_SET_NO": 999, "REV_AT_EPOCH": 88237, "BSTAR": 0.00026637841, "MEAN_MOTION_DOT": 8.97e-06, "MEAN_MOTION_DDOT": 0}, "tle": {"line1": "1 33850U 97051T   25352.62451370  .00000897  00000+0  26638-3 0  9997", "line2": "2 33850  86.3413  27.6492 0012791 143.3422 342.6058 14.42158968882379"}}, "geometry": {"type": "Point", "coordinates": [26.472468256235572, -13.645204228392085]}}, {"type": "Feature", "properties": {"norad_id": 33853, "name": "IRIDIUM 33 DEB", "group": "iridium-33-debris", "lat": 73.19971863653574, "lon": 0.3390603971872515, "alt_km": 1007.356654167138, "timestamp": "2025-12-19T06:59:44.291575+00:00", "meta": {"OBJECT_NAME": "IRIDIUM 33 DEB", "OBJECT_ID": "1997-051W", "EPOCH": "2025-12-18T10:46:35.462784", "MEAN_MOTION": 13.9909411, "ECCENTRICITY": 0.02071281, "INCLINATION": 85.9998, "RA_OF_ASC_NODE": 347.3075, "ARG_OF_PERICENTER": 218.1719, "MEAN_ANOMALY": 296.3218, "EPHEMERIS_TYPE": 0, "CLASSIFICATION_TYPE": "U", "NORAD_CAT_ID": 33853, "ELEMENT_SET_NO": 999, "REV_AT_EPOCH": 85425, "BSTAR": 0.0013854201, "MEAN_MOTION_DOT": 2.426e-05, "MEAN_MOTION_DDOT": 0}, "tle": {"line1": "1 33853U 97051W   25352.44902156  .00002426  00000+0  13854-2 0  9998", "line2": "2 33853  85.9998 347.3075 0207128 218.1719 296.3218 13.99094110854252"}}, "geometry": {"type": "Point", "coordinates": [0.3390603971872515, 73.19971863653574]}}, {"type": "Feature", "properties": {"norad_id": 33860, "name": "IRIDIUM 33 DEB", "group": "iridium-33-debris", "lat": 24.656368675829306, "lon": -157.32554666463238, "alt_km": 673.4102998037724, "timestamp": "2025-12-19T06:59:44.291586+00:00", "meta": {"OBJECT_NAME": "IRIDIUM 33 DEB", "OBJECT_ID": "1997-051AD", "EPOCH": "2025-12-18T14:31:05.174400", "MEAN_MOTION": 14.67436925, "ECCENTRICITY": 0.00067189, "INCLINATION": 86.3829, "RA_OF_ASC_NODE": 24.6422, "ARG_OF_PERICENTER": 336.0617, "MEAN_ANOMALY": 154.5201, "EPHEMERIS_TYPE": 0, "CLASSIFICATION_TYPE": "U", "NORAD_CAT_ID": 33860, "ELEMENT_SET_NO": 999, "REV_AT_EPOCH": 88808, "BSTAR": 0.00081514555, "MEAN_MOTION_DOT": 4.635e-05, "MEAN_MOTION_DDOT": 0}, "tle": {"line1": "1 33860U 97051AD  25352.60492100  .00004635  00000+0  81515-3 0  9991", "line2": "2 33860  86.3829  24.6422 0006718 336.0617 154.5201 14.67436925888083"}}, "geometry": {"type": "Point", "coordinates": [-157.32554666463238, 24.656368675829306]}}, {"type": "Feature", "properties": {"norad_id": 33862, "name": "IRIDIUM 33 DEB", "group": "iridium-33-debris", "lat": -60.14996885831557, "lon": -139.07533297344028, "alt_km": 705.9347005089985, "timestamp": "2025-12-19T06:59:44.291598+00:00", "meta": {"OBJECT_NAME": "IRIDIUM 33 DEB", "OBJECT_ID": "1997-051AF", "EPOCH": "2025-12-18T14:17:29.205888", "MEAN_MOTION": 14.69565886, "ECCENTRICITY": 0.00528917, "INCLINATION": 86.4087, "RA_OF_ASC_NODE": 34.9485, "ARG_OF_PERICENTER": 49.5789, "MEAN_ANOMALY": 111.0482, "EPHEMERIS_TYPE": 0, "CLASSIFICATION_TYPE": "U", "NORAD_CAT_ID": 33862, "ELEMENT_SET_NO": 999, "REV_AT_EPOCH": 88909, "BSTAR": 0.0010173542, "MEAN_MOTION_DOT": 6.195e-05, "MEAN_MOTION_DDOT": 0}, "tle": {"line1": "1 33862U 97051AF  25352.59547692  .00006195  00000+0  10174-2 0  9993", "line2": "2 33862  86.4087  34.9485 0052891  49.5789 111.0482 14.69565886889096"}}, "geometry": {"type": "Point", "coordinates": [-139.07533297344028, -60.14996885831557]}}, {"type": "Feature", "properties": {"norad_id": 33866, "name": "IRIDIUM 33 DEB", "group": "iridium-33-debris", "lat": -16.928240162188352, "lon": 89.13540837657249, "alt_km": 888.5685808282124, "timestamp": "2025-12-19T06:59:44.291608+00:00", "meta": {"OBJECT_NAME": "IRIDIUM 33 DEB", "OBJECT_ID": "1997-051AK", "EPOCH": "2025-12-18T19:52:11.975232", "MEAN_MOTION": 14.25292882, "ECCENTRICITY": 0.01148798, "INCLINATION": 86.3001, "RA_OF_ASC_NODE": 90.46, "ARG_OF_PERICENTER": 142.0822, "MEAN_ANOMALY": 344.4726, "EPHEMERIS_TYPE": 0, "CLASSIFICATION_TYPE": "U", "NORAD_CAT_ID": 33866, "ELEMENT_SET_NO": 999, "REV_AT_EPOCH": 86897, "BSTAR": 0.00043591278, "MEAN_MOTION_DOT": 1.119e-05, "MEAN_MOTION_DDOT": 0}, "tle": {"line1": "1 33866U 97051AK  25352.82791638  .00001119  00000+0  43591-3 0  9995", "line2": "2 33866  86.3001  90.4600 0114879 142.0822 344.4726 14.25292882868975"}}, "geometry": {"type": "Point", "coordinates": [89.13540837657249, -16.928240162188352]}}]}